{
  "norad_id": 62080,
  "name": "SUPERVIEW NEO-2 04",
  "history": [
    {
      "epoch": "2026-03-27T12:53:35.916000",
      "apogee_km": 507.54601472000104,
      "perigee_km": 505.8151715770846,
      "latitude_deg": -38.401843060224074,
      "longitude_deg": -16.426760000176728,
      "semi_major_axis_km": 6884.817593148543,
      "eccentricity": 0.0001257,
      "inclination_deg": 97.439,
      "raan_deg": 95.0327,
      "arg_perigee_deg": 111.4891,
      "mean_anomaly_deg": 248.6478,
      "mean_motion_rev_day": 15.19721838
    }
  ]
}