{"fetched_at":"2026-03-29T02:12:04Z","count":15717,"tles":[{"name":"SUPERVIEW NEO-2 04","line1":"1 62080U 24218C   26086.53722125  .00001417  00000+0  69512-4 0  9991","line2":"2 62080  97.4390  95.0327 0001257 111.4891 248.6478 15.19721838 74045","category":"Other"}]}